STARLETTE               
1 07646U 75010A   20034.82520737 -.00000129  00000-0  94967-5 0  9992
2 07646  49.8244 282.8440 0205695 301.3939  56.6979 13.82307119272883
LAGEOS 1                
1 08820U 76039A   20034.74084977  .00000009  00000-0  00000-0 0  9997
2 08820 109.8452 102.8107 0044138  79.4060  24.6633  6.38664898764946
AJISAI (EGS)            
1 16908U 86061A   20034.68605528 -.00000100  00000-0 -17694-4 0  9998
2 16908  50.0095  98.0780 0011307  21.7585 158.5247 12.44491180190957
LAGEOS 2                
1 22195U 92070B   20034.37107411 -.00000009  00000-0  00000+0 0  9999
2 22195  52.6616 296.5589 0138162 250.0783 311.6242  6.47293840645060
STELLA                  
1 22824U 93061B   20035.09618535 -.00000041  00000-0  20978-5 0  9991
2 22824  98.9502  22.6508 0007105 130.4161 292.8601 14.27379505373234
LARES                   
1 38077U 12006A   20034.97720385 -.00000009  00000-0  17900-3 0  9994
2 38077  69.4951 303.9078 0006422  75.2775 284.8985 12.54931248365443
